{"epoch":1784762836,"count":18316,"objects":[{"id":"57921","name":"STARLINK-30492","type":"PAYLOAD","l1":"1 57921U 23147J   26203.49847074  .00001667  00000-0  70122-4 0  9993","l2":"2 57921  43.0026 284.0213 0001706 269.9915  90.0741 15.27570588157211"},{"id":"57923","name":"STARLINK-30440","type":"PAYLOAD","l1":"1 57923U 23147L   26203.58312291  .00001236  00000-0  54409-4 0  9995","l2":"2 57923  43.0014 283.7883 0001455 278.6348  81.4338 15.27584769157253"},{"id":"57924","name":"STARLINK-30487","type":"PAYLOAD","l1":"1 57924U 23147M   26203.50181886  .00002025  00000-0  83075-4 0  9990","l2":"2 57924  43.0026 287.4289 0001928 263.5205  96.5427 15.27586309157201"},{"id":"57925","name":"STARLINK-30452","type":"PAYLOAD","l1":"1 57925U 23147N   26203.58570091 -.00000575  00000-0 -11365-4 0  9992","l2":"2 57925  43.0017 283.8087 0001205 266.4036  93.6678 15.27576239157229"},{"id":"57926","name":"STARLINK-30468","type":"PAYLOAD","l1":"1 57926U 23147P   26203.54279697  .00000321  00000-0  21186-4 0  9996","l2":"2 57926  43.0063 286.9049 0001752 273.9623  86.1029 15.27583052157188"},{"id":"57928","name":"STARLINK-30448","type":"PAYLOAD","l1":"1 57928U 23147R   26202.64151825  .00000914  00000-0  42735-4 0  9991","l2":"2 57928  43.0037 292.1712 0002088 275.8230  84.2384 15.27583003157049"},{"id":"57930","name":"STARLINK-30476","type":"PAYLOAD","l1":"1 57930U 23147T   26203.58336806  .00432640  84454-4  95903-3 0  9990","l2":"2 57930  42.9848 187.7347 0008283 200.4208   2.8361 15.97073658  6024"},{"id":"57931","name":"STARLINK-30488","type":"PAYLOAD","l1":"1 57931U 23147U   26203.29923844  .00000932  00000-0  43408-4 0  9993","l2":"2 57931  43.0052 288.5040 0001432 242.6371 117.4336 15.27582050157174"},{"id":"57932","name":"STARLINK-30471","type":"PAYLOAD","l1":"1 57932U 23147V   26203.59326446  .00004356  00000-0  16781-3 0  9999","l2":"2 57932  43.0009 283.0122 0001105 286.1267  73.9463 15.27560965157237"},{"id":"57933","name":"STARLINK-30461","type":"PAYLOAD","l1":"1 57933U 23147W   26203.58939966  .00000734  00000-0  36209-4 0  9990","l2":"2 57933  43.0025 282.9831 0001336 276.0201  84.0499 15.27584250157238"},{"id":"57935","name":"STARLINK-30712","type":"PAYLOAD","l1":"1 57935U 23148A   26203.05133418  .00002799  00000-0  93971-4 0  9995","l2":"2 57935  53.1593 118.0822 0002483  96.9078 263.2207 15.34394321159029"},{"id":"57936","name":"STARLINK-30716","type":"PAYLOAD","l1":"1 57936U 23148B   26203.58336806  .00107683  00000-0  32569-2 0  9992","l2":"2 57936  53.1589 117.8510 0001054  96.8471 209.3938 15.33371799  5840"},{"id":"57937","name":"STARLINK-30400","type":"PAYLOAD","l1":"1 57937U 23148C   26203.08499581  .00001808  00000-0  64629-4 0  9994","l2":"2 57937  53.1608 118.2445 0001372  75.0402 285.0752 15.34403438159023"},{"id":"57938","name":"STARLINK-30710","type":"PAYLOAD","l1":"1 57938U 23148D   26201.99015553  .00000846  00000-0  36204-4 0  9995","l2":"2 57938  53.1603 112.9497 0001812  72.8891 287.2310 15.34392687158995"},{"id":"57939","name":"STARLINK-30714","type":"PAYLOAD","l1":"1 57939U 23148E   26203.05481316  .00044900  00000-0  14170-2 0  9994","l2":"2 57939  53.1562 120.1189 0001710 121.1137 239.0033 15.32435681158994"},{"id":"57940","name":"STARLINK-30711","type":"PAYLOAD","l1":"1 57940U 23148F   26203.05398935  .00001018  00000-0  41252-4 0  9996","l2":"2 57940  53.1618 120.1376 0001458  92.7694 267.3476 15.34404601158991"},{"id":"57941","name":"STARLINK-30715","type":"PAYLOAD","l1":"1 57941U 23148G   26203.35055652  .00022058  00000-0  75082-3 0  9990","l2":"2 57941  53.1598 108.4933 0001150  62.7810 297.3308 15.30364928159185"},{"id":"57942","name":"STARLINK-30455","type":"PAYLOAD","l1":"1 57942U 23148H   26203.04762565  .00000514  00000-0  26943-4 0  9991","l2":"2 57942  53.1617 120.0385 0001313  83.5070 276.6082 15.33556920158994"},{"id":"57943","name":"STARLINK-30456","type":"PAYLOAD","l1":"1 57943U 23148J   26203.06838828 -.00002480  00000-0 -71661-4 0  9993","l2":"2 57943  53.1611 120.2982 0001326  87.1479 272.9673 15.30186883158990"},{"id":"57944","name":"STARLINK-30708","type":"PAYLOAD","l1":"1 57944U 23148K   26203.46318975  .00001011  00000-0  41067-4 0  9998","l2":"2 57944  53.1590 116.3705 0001333  67.1147 292.9996 15.34401407159081"},{"id":"57945","name":"STARLINK-30705","type":"PAYLOAD","l1":"1 57945U 23148L   26203.46536985 -.00009639  00000-0 -27527-3 0  9992","l2":"2 57945  53.1611 116.3895 0000799  83.7210 276.3883 15.34314857159089"},{"id":"57946","name":"STARLINK-30704","type":"PAYLOAD","l1":"1 57946U 23148M   26203.21209071  .00000553  00000-0  27493-4 0  9996","l2":"2 57946  53.1590 195.1954 0001163  93.3738 266.7397 15.34393803157938"},{"id":"57947","name":"STARLINK-30706","type":"PAYLOAD","l1":"1 57947U 23148N   26203.04713103  .00002464  00000-0  84075-4 0  9996","l2":"2 57947  53.1603 118.0344 0001575  81.3312 278.7869 15.34387705159026"},{"id":"57949","name":"STARLINK-30707","type":"PAYLOAD","l1":"1 57949U 23148Q   26203.45267144  .00001301  00000-0  49642-4 0  9992","l2":"2 57949  53.1597 116.3030 0001528  85.0780 275.0397 15.34399150159080"},{"id":"57950","name":"STARLINK-30701","type":"PAYLOAD","l1":"1 57950U 23148R   26203.03459365  .00000034  00000-0  12140-4 0  9991","l2":"2 57950  53.1594 118.6579 0001593  83.0850 277.0334 15.34400750159015"},{"id":"57951","name":"STARLINK-30399","type":"PAYLOAD","l1":"1 57951U 23148S   26203.05343286  .00001037  00000-0  41822-4 0  9991","l2":"2 57951  53.1608 118.0636 0001378  92.1431 267.9729 15.34414017159025"},{"id":"57952","name":"STARLINK-30713","type":"PAYLOAD","l1":"1 57952U 23148T   26203.08289294  .00002701  00000-0  91024-4 0  9991","l2":"2 57952  53.1600 118.2633 0001446  77.3829 282.7335 15.34405166159022"},{"id":"57953","name":"STARLINK-30700","type":"PAYLOAD","l1":"1 57953U 23148U   26203.06219043  .00005361  00000-0  17404-3 0  9999","l2":"2 57953  53.1631 109.9364 0001372 107.0896 253.0256 15.33582454159138"},{"id":"57954","name":"STARLINK-30703","type":"PAYLOAD","l1":"1 57954U 23148V   26203.05331614  .00003924  00000-0  12713-3 0  9999","l2":"2 57954  53.1601 108.0019 0001247  96.6410 263.4734 15.34422365159163"},{"id":"57955","name":"STARLINK-30702","type":"PAYLOAD","l1":"1 57955U 23148W   26203.42530273  .00000635  00000-0  29932-4 0  9991","l2":"2 57955  53.1611 106.7615 0001496  67.9334 292.1827 15.34404729159216"}]}