OBJECT_NAME,OBJECT_ID,EPOCH,MEAN_MOTION,ECCENTRICITY,INCLINATION,RA_OF_ASC_NODE,ARG_OF_PERICENTER,MEAN_ANOMALY,EPHEMERIS_TYPE,CLASSIFICATION_TYPE,NORAD_CAT_ID,ELEMENT_SET_NO,REV_AT_EPOCH,BSTAR,MEAN_MOTION_DOT,MEAN_MOTION_DDOT
STARLINK-30492,2023-147J,2026-07-22T11:57:47.871936,15.27570588,.00017056,43.0026,284.0213,269.9915,90.0741,0,U,57921,999,15721,.70121528E-4,.1667E-4,0
STARLINK-30440,2023-147L,2026-07-22T13:59:41.819424,15.27584769,.00014546,43.0014,283.7883,278.6348,81.4338,0,U,57923,999,15725,.54408616E-4,.1236E-4,0
STARLINK-30487,2023-147M,2026-07-22T12:02:37.149504,15.27586309,.00019283,43.0026,287.4289,263.5205,96.5427,0,U,57924,999,15720,.83075146E-4,.2025E-4,0
STARLINK-30452,2023-147N,2026-07-22T14:03:24.558624,15.27576239,.00012049,43.0017,283.8087,266.4036,93.6678,0,U,57925,999,15722,-.11365075E-4,-.575E-5,0
STARLINK-30468,2023-147P,2026-07-22T13:01:37.658208,15.27583052,.00017518,43.0063,286.9049,273.9623,86.1029,0,U,57926,999,15718,.21186175E-4,.321E-5,0
STARLINK-30448,2023-147R,2026-07-21T15:23:47.176800,15.27583003,.00020884,43.0037,292.1712,275.8230,84.2384,0,U,57928,999,15704,.42734775E-4,.914E-5,0
STARLINK-30476,2023-147T,2026-07-22T14:00:03.000384,15.97073658,.00082827,42.9848,187.7347,200.4208,2.8361,0,U,57930,999,602,.95902919E-3,.43264E-2,.84453916E-4
STARLINK-30488,2023-147U,2026-07-22T07:10:54.201216,15.27582050,.00014324,43.0052,288.5040,242.6371,117.4336,0,U,57931,999,15717,.43407621E-4,.932E-5,0
STARLINK-30471,2023-147V,2026-07-22T14:14:18.049344,15.27560965,.00011051,43.0009,283.0122,286.1267,73.9463,0,U,57932,999,15723,.16780872E-3,.4356E-4,0
STARLINK-30461,2023-147W,2026-07-22T14:08:44.130624,15.27584250,.00013364,43.0025,282.9831,276.0201,84.0499,0,U,57933,999,15723,.36208713E-4,.734E-5,0
STARLINK-30712,2023-148A,2026-07-22T01:13:55.273152,15.34394321,.00024831,53.1593,118.0822,96.9078,263.2207,0,U,57935,999,15902,.93971206E-4,.2799E-4,0
STARLINK-30716,2023-148B,2026-07-22T14:00:03.000384,15.33371799,.00010539,53.1589,117.8510,96.8471,209.3938,0,U,57936,999,584,.32568839E-2,.107683E-2,0
STARLINK-30400,2023-148C,2026-07-22T02:02:23.637984,15.34403438,.00013716,53.1608,118.2445,75.0402,285.0752,0,U,57937,999,15902,.64629258E-4,.1808E-4,0
STARLINK-30710,2023-148D,2026-07-20T23:45:49.437792,15.34392687,.00018116,53.1603,112.9497,72.8891,287.2310,0,U,57938,999,15899,.36203819E-4,.846E-5,0
STARLINK-30714,2023-148E,2026-07-22T01:18:55.857024,15.32435681,.00017097,53.1562,120.1189,121.1137,239.0033,0,U,57939,999,15899,.14170438E-2,.449E-3,0
STARLINK-30711,2023-148F,2026-07-22T01:17:44.679840,15.34404601,.00014578,53.1618,120.1376,92.7694,267.3476,0,U,57940,999,15899,.41252245E-4,.1018E-4,0
STARLINK-30715,2023-148G,2026-07-22T08:24:48.083328,15.30364928,.00011502,53.1598,108.4933,62.7810,297.3308,0,U,57941,999,15918,.75082349E-3,.22058E-3,0
STARLINK-30455,2023-148H,2026-07-22T01:08:34.856160,15.33556920,.0001313,53.1617,120.0385,83.5070,276.6082,0,U,57942,999,15899,.26943043E-4,.514E-5,0
STARLINK-30456,2023-148J,2026-07-22T01:38:28.747392,15.30186883,.00013256,53.1611,120.2982,87.1479,272.9673,0,U,57943,999,15899,-.71660751E-4,-.248E-4,0
STARLINK-30708,2023-148K,2026-07-22T11:06:59.594400,15.34401407,.00013327,53.1590,116.3705,67.1147,292.9996,0,U,57944,999,15908,.41067401E-4,.1011E-4,0
STARLINK-30705,2023-148L,2026-07-22T11:10:07.955040,15.34314857,.00007987,53.1611,116.3895,83.7210,276.3883,0,U,57945,999,15908,-.27527336E-3,-.9639E-4,0
STARLINK-30704,2023-148M,2026-07-22T05:05:24.637344,15.34393803,.00011625,53.1590,195.1954,93.3738,266.7397,0,U,57946,999,15793,.27493214E-4,.553E-5,0
STARLINK-30706,2023-148N,2026-07-22T01:07:52.120992,15.34387705,.00015754,53.1603,118.0344,81.3312,278.7869,0,U,57947,999,15902,.84074875E-4,.2464E-4,0
STARLINK-30707,2023-148Q,2026-07-22T10:51:50.812416,15.34399150,.00015278,53.1597,116.3030,85.0780,275.0397,0,U,57949,999,15908,.49642491E-4,.1301E-4,0
STARLINK-30701,2023-148R,2026-07-22T00:49:48.891360,15.34400750,.00015927,53.1594,118.6579,83.0850,277.0334,0,U,57950,999,15901,.12140392E-4,.34E-6,0
STARLINK-30399,2023-148S,2026-07-22T01:16:56.599104,15.34414017,.00013779,53.1608,118.0636,92.1431,267.9729,0,U,57951,999,15902,.41822061E-4,.1037E-4,0
STARLINK-30713,2023-148T,2026-07-22T01:59:21.950016,15.34405166,.00014459,53.1600,118.2633,77.3829,282.7335,0,U,57952,999,15902,.91023987E-4,.2701E-4,0
STARLINK-30700,2023-148U,2026-07-22T01:29:33.253152,15.33582454,.00013719,53.1631,109.9364,107.0896,253.0256,0,U,57953,999,15913,.17404129E-3,.5361E-4,0
STARLINK-30703,2023-148V,2026-07-22T01:16:46.514496,15.34422365,.00012468,53.1601,108.0019,96.6410,263.4734,0,U,57954,999,15916,.12712524E-3,.3924E-4,0
STARLINK-30702,2023-148W,2026-07-22T10:12:26.155872,15.34404729,.00014958,53.1611,106.7615,67.9334,292.1827,0,U,57955,999,15921,.2993217E-4,.635E-5,0
